[{"OBJECT_NAME":"STARLINK-6055","OBJECT_ID":"2023-064V","EPOCH":"2026-03-09T12:55:56.635680","MEAN_MOTION":14.98328608,"ECCENTRICITY":0.00034716,"INCLINATION":69.9993,"RA_OF_ASC_NODE":124.963,"ARG_OF_PERICENTER":272.0623,"MEAN_ANOMALY":88.0138,"EPHEMERIS_TYPE":0,"CLASSIFICATION_TYPE":"U","NORAD_CAT_ID":56467,"ELEMENT_SET_NO":999,"REV_AT_EPOCH":15571,"BSTAR":0.00018471053,"MEAN_MOTION_DOT":2.112e-5,"MEAN_MOTION_DDOT":0},{"OBJECT_NAME":"FENGYUN 1C DEB","OBJECT_ID":"1999-025BTY","EPOCH":"2026-03-09T14:49:03.533664","MEAN_MOTION":15.05418076,"ECCENTRICITY":0.0035944,"INCLINATION":98.8793,"RA_OF_ASC_NODE":298.6402,"ARG_OF_PERICENTER":319.4464,"MEAN_ANOMALY":105.3063,"EPHEMERIS_TYPE":0,"CLASSIFICATION_TYPE":"U","NORAD_CAT_ID":31436,"ELEMENT_SET_NO":999,"REV_AT_EPOCH":98178,"BSTAR":0.0045436,"MEAN_MOTION_DOT":0.00066638,"MEAN_MOTION_DDOT":0}]
